STAR ONE D2             
1 49055U 21069A   26161.53997559  .00000000  00000+0  00000+0 0  9997
2 49055   0.0139 348.7558 0002001 118.3258 276.1001  1.00267877 17877
EUTELSAT QUANTUM        
1 49056U 21069B   26162.98910435  .00000142  00000+0  00000+0 0  9993
2 49056   0.0152  20.3393 0002136  61.1217 222.6455  1.00270285 17878
ZHONGXING-2E            
1 49062U 21071A   26163.14141634 -.00000276  00000+0  00000+0 0  9998
2 49062   0.0390 237.2888 0001713 251.7080 280.4644  1.00271814 17985
SHIJIAN-21 (SJ-21)      
1 49330U 21094A   26163.75110895 -.00000337  00000+0  00000+0 0  9991
2 49330   5.1021  61.2058 0049808 168.2043  70.1048  1.00272874  5315
SES-17                  
1 49332U 21095A   26162.40030971 -.00000256  00000+0  00000+0 0  9991
2 49332   0.0244  33.3374 0001055  68.7337 234.6984  1.00275202 17790
QZS-1R (MICHIBIKI-1R)   
1 49336U 21096A   26162.64809291 -.00000250  00000+0  00000+0 0  9995
2 49336  37.4503  79.6669 0754440 271.6776 276.3022  1.00257351 16959
STPSAT-6                
1 49817U 21118A   26163.24269133 -.00000031  00000+0  00000+0 0  9993
2 49817   0.3075  85.4475 0001452 248.5070 262.3263  1.00272973 16526
INMARSAT 6-F1           
1 50319U 21128A   26162.71106312 -.00000155  00000+0  00000+0 0  9990
2 50319   0.0171 314.9399 0000337 244.6061  40.2457  1.00270504 16203
SHIYAN-12 01 (SY-12 01) 
1 50321U 21129A   26163.70519412  .00000069  00000+0  00000+0 0  9996
2 50321   3.6624  79.9688 0003267 285.0494 213.7315  1.00038393 16456
SHIYAN-12 02 (SY-12 02) 
1 50322U 21129B   26163.70944794 -.00000221  00000+0  00000+0 0  9993
2 50322   3.6621  79.9748 0002680  60.3688 101.4803  1.00490412 16457
USA 324                 
1 51280U 22006A   26157.08795008 -.00000058  00000+0  00000+0 0  9996
2 51280   0.7690  83.2777 0002840 165.6787 110.1567  1.00289779 16021
NILESAT 301             
1 52817U 22061A   26162.69308692 -.00000040  00000+0  00000+0 0  9997
2 52817   0.0457 351.7910 0005273  53.6570  97.1154  1.00278760 14687
CMS-02 (GSAT-24)        
1 52903U 22067A   26162.64611869 -.00000148  00000+0  00000+0 0  9996
2 52903   0.0422 121.5858 0001544 248.1891 205.8179  1.00271141 14550
MEASAT 3D               
1 52904U 22067B   26163.14037634 -.00000225  00000+0  00000+0 0  9991
2 52904   0.0370 316.4818 0000553 104.1870 341.8219  1.00268986 14594
SES-22                  
1 52933U 22071A   26163.30118163  .00000120  00000+0  00000+0 0  9996
2 52933   0.0142 305.5827 0001329 124.0158 160.4649  1.00269159  7478
WFOV (USA 332)          
1 52940U 22073A   26163.28837929 -.00000349  00000+0  00000+0 0  9995
2 52940   3.6977  78.5885 0002158 237.6865 167.4106  1.00269149 14325
TIANLIAN 2-03           
1 53100U 22078A   26163.26687939  .00000087  00000+0  00000+0 0  9999
2 53100   0.6595  76.9416 0001554 324.7446 325.5766  1.00271516 14499
SBIRS GEO-6 (USA 336)   
1 53355U 22092A   26163.22106382 -.00000277  00000+0  00000+0 0  9993
2 53355   3.2668 317.4027 0001776 119.0767  42.6707  1.00270603 14183
EUTELSAT KONNECT VHTS   
1 53765U 22110A   26160.62755586  .00000034  00000+0  00000+0 0  9996
2 53765   0.0647 103.4177 0002603 320.1706  63.0435  1.00269352  6766
SES-20                  
1 53960U 22123A   26162.88797140 -.00000085  00000+0  00000+0 0  9996
2 53960   0.0347  75.6140 0001770   6.5684  34.6215  1.00271689 13487
