OBJECT_NAME,OBJECT_ID,EPOCH,MEAN_MOTION,ECCENTRICITY,INCLINATION,RA_OF_ASC_NODE,ARG_OF_PERICENTER,MEAN_ANOMALY,EPHEMERIS_TYPE,CLASSIFICATION_TYPE,NORAD_CAT_ID,ELEMENT_SET_NO,REV_AT_EPOCH,BSTAR,MEAN_MOTION_DOT,MEAN_MOTION_DDOT
STAR ONE D2,2021-069A,2026-06-10T12:57:33.890976,1.00267877,.00020013,0.0139,348.7558,118.3258,276.1001,0,U,49055,999,1787,0,0,0
EUTELSAT QUANTUM,2021-069B,2026-06-11T23:44:18.615840,1.00270285,.00021363,0.0152,20.3393,61.1217,222.6455,0,U,49056,999,1787,0,.142E-5,0
ZHONGXING-2E,2021-071A,2026-06-12T03:23:38.371776,1.00271814,.00017131,0.0390,237.2888,251.7080,280.4644,0,U,49062,999,1798,0,-.276E-5,0
SHIJIAN-21 (SJ-21),2021-094A,2026-06-12T18:01:35.813280,1.00272874,.0049808,5.1021,61.2058,168.2043,70.1048,0,U,49330,999,531,0,-.337E-5,0
SES-17,2021-095A,2026-06-11T09:36:26.758944,1.00275202,.00010559,0.0244,33.3374,68.7337,234.6984,0,U,49332,999,1779,0,-.256E-5,0
QZS-1R (MICHIBIKI-1R),2021-096A,2026-06-11T15:33:15.227424,1.00257351,.07544403,37.4503,79.6669,271.6776,276.3022,0,U,49336,999,1695,0,-.25E-5,0
STPSAT-6,2021-118A,2026-06-12T05:49:28.530912,1.00272973,.00014526,0.3075,85.4475,248.5070,262.3263,0,U,49817,999,1652,0,-.31E-6,0
INMARSAT 6-F1,2021-128A,2026-06-11T17:03:55.853568,1.00270504,.00003378,0.0171,314.9399,244.6061,40.2457,0,U,50319,999,1620,0,-.155E-5,0
SHIYAN-12 01 (SY-12 01),2021-129A,2026-06-12T16:55:28.771968,1.00038393,.0003267,3.6624,79.9688,285.0494,213.7315,0,U,50321,999,1645,0,.69E-6,0
SHIYAN-12 02 (SY-12 02),2021-129B,2026-06-12T17:01:36.302016,1.00490412,.000268,3.6621,79.9748,60.3688,101.4803,0,U,50322,999,1645,0,-.221E-5,0
USA 324,2022-006A,2026-06-06T02:06:38.886912,1.00289779,.000284,0.7690,83.2777,165.6787,110.1567,0,U,51280,999,1602,0,-.58E-6,0
NILESAT 301,2022-061A,2026-06-11T16:38:02.709888,1.00278760,.00052732,0.0457,351.7910,53.6570,97.1154,0,U,52817,999,1468,0,-.4E-6,0
CMS-02 (GSAT-24),2022-067A,2026-06-11T15:30:24.654816,1.00271141,.00015448,0.0422,121.5858,248.1891,205.8179,0,U,52903,999,1455,0,-.148E-5,0
MEASAT 3D,2022-067B,2026-06-12T03:22:08.515776,1.00268986,.00005533,0.0370,316.4818,104.1870,341.8219,0,U,52904,999,1459,0,-.225E-5,0
SES-22,2022-071A,2026-06-12T07:13:42.092832,1.00269159,.00013297,0.0142,305.5827,124.0158,160.4649,0,U,52933,999,747,0,.12E-5,0
WFOV (USA 332),2022-073A,2026-06-12T06:55:15.970656,1.00269149,.00021589,3.6977,78.5885,237.6865,167.4106,0,U,52940,999,1432,0,-.349E-5,0
TIANLIAN 2-03,2022-078A,2026-06-12T06:24:18.379296,1.00271516,.00015543,0.6595,76.9416,324.7446,325.5766,0,U,53100,999,1449,0,.87E-6,0
SBIRS GEO-6 (USA 336),2022-092A,2026-06-12T05:18:19.914048,1.00270603,.00017768,3.2668,317.4027,119.0767,42.6707,0,U,53355,999,1418,0,-.277E-5,0
EUTELSAT KONNECT VHTS,2022-110A,2026-06-09T15:03:40.826304,1.00269352,.00026035,0.0647,103.4177,320.1706,63.0435,0,U,53765,999,676,0,.34E-6,0
SES-20,2022-123A,2026-06-11T21:18:40.728960,1.00271689,.00017706,0.0347,75.6140,6.5684,34.6215,0,U,53960,999,1348,0,-.85E-6,0
